CTC2_L_00011001-01
1 43260U 23808EH  26070.40841435  .00000000  00000+0  00000-0 0  9999
2 43260  60.0000   0.0000 0000000   0.0000   0.0000 15.80155680    13
CTC2_L_00011001-02
1 43261U 22797IS  26070.40841435  .00000000  00000+0  00000-0 0  9996
2 43261  60.0000   0.0000 0000000   0.0000  90.0000 15.80155680    13
CTC2_L_00011001-03
1 43262U 26067VP  26070.40841435  .00000000  00000+0  00000-0 0  9991
2 43262  60.0000   0.0000 0000000   0.0000 180.0000 15.80155680    14
CTC2_L_00011001-04
1 43263U 25088KL  26070.40841435  .00000000  00000+0  00000-0 0  9994
2 43263  60.0000   0.0000 0000000   0.0000 270.0000 15.80155680    15
CTC2_L_00011002-01
1 43264U 25330XH  26070.40841435  .00000000  00000+0  00000-0 0  9995
2 43264  60.0000  12.0000 0000000   0.0000  12.0000 15.80155680    13
CTC2_L_00011002-02
1 43265U 24296JI  26070.40841435  .00000000  00000+0  00000-0 0  9996
2 43265  60.0000  12.0000 0000000   0.0000 102.0000 15.80155680    14
CTC2_L_00011002-03
1 43266U 23118AX  26070.40841435  .00000000  00000+0  00000-0 0  9999
2 43266  60.0000  12.0000 0000000   0.0000 192.0000 15.80155680    14
CTC2_L_00011002-04
1 43267U 25843MJ  26070.40841435  .00000000  00000+0  00000-0 0  9997
2 43267  60.0000  12.0000 0000000   0.0000 282.0000 15.80155680    15
CTC2_L_00011003-01
1 43268U 23533WW  26070.40841435  .00000000  00000+0  00000-0 0  9992
2 43268  60.0000  24.0000 0000000   0.0000  24.0000 15.80155680    13
CTC2_L_00011003-02
1 43269U 22662HN  26070.40841435  .00000000  00000+0  00000-0 0  9995
2 43269  60.0000  24.0000 0000000   0.0000 114.0000 15.80155680    14
CTC2_L_00011003-03
1 43270U 24132TM  26070.40841435  .00000000  00000+0  00000-0 0  9991
2 43270  60.0000  24.0000 0000000   0.0000 204.0000 15.80155680    16
CTC2_L_00011003-04
1 43271U 22470ZE  26070.40841435  .00000000  00000+0  00000-0 0  9995
2 43271  60.0000  24.0000 0000000   0.0000 294.0000 15.80155680    16
CTC2_L_00011004-01
1 43272U 22545RE  26070.40841435  .00000000  00000+0  00000-0 0  9999
2 43272  60.0000  36.0000 0000000   0.0000  36.0000 15.80155680    14
CTC2_L_00011004-02
1 43273U 23857PE  26070.40841435  .00000000  00000+0  00000-0 0  9997
2 43273  60.0000  36.0000 0000000   0.0000 126.0000 15.80155680    15
CTC2_L_00011004-03
1 43274U 23876AE  26070.40841435  .00000000  00000+0  00000-0 0  9999
2 43274  60.0000  36.0000 0000000   0.0000 216.0000 15.80155680    16
CTC2_L_00011004-04
1 43275U 22307JF  26070.40841435  .00000000  00000+0  00000-0 0  9998
2 43275  60.0000  36.0000 0000000   0.0000 306.0000 15.80155680    17
CTC2_L_00011005-01
1 43276U 25757JW  26070.40841435  .00000000  00000+0  00000-0 0  9991
2 43276  60.0000  48.0000 0000000   0.0000  48.0000 15.80155680    14
CTC2_L_00011005-02
1 43277U 23822LS  26070.40841435  .00000000  00000+0  00000-0 0  9993
2 43277  60.0000  48.0000 0000000   0.0000 138.0000 15.80155680    15
CTC2_L_00011005-03
1 43278U 26675RG  26070.40841435  .00000000  00000+0  00000-0 0  9993
2 43278  60.0000  48.0000 0000000   0.0000 228.0000 15.80155680    16
CTC2_L_00011005-04
1 43279U 24764YE  26070.40841435  .00000000  00000+0  00000-0 0  9991
2 43279  60.0000  48.0000 0000000   0.0000 318.0000 15.80155680    17
CTC2_L_00011006-01
1 43280U 26487XV  26070.40841435  .00000000  00000+0  00000-0 0  9997
2 43280  60.0000  60.0000 0000000   0.0000  60.0000 15.80155680    17
CTC2_L_00011006-02
1 43281U 22982IH  26070.40841435  .00000000  00000+0  00000-0 0  9994
2 43281  60.0000  60.0000 0000000   0.0000 150.0000 15.80155680    18
CTC2_L_00011006-03
1 43282U 25514RG  26070.40841435  .00000000  00000+0  00000-0 0  9999
2 43282  60.0000  60.0000 0000000   0.0000 240.0000 15.80155680    19
CTC2_L_00011006-04
1 43283U 24031OQ  26070.40841435  .00000000  00000+0  00000-0 0  9993
2 43283  60.0000  60.0000 0000000   0.0000 330.0000 15.80155680    10
CTC2_L_00011007-01
1 43284U 23399OL  26070.40841435  .00000000  00000+0  00000-0 0  9990
2 43284  60.0000  72.0000 0000000   0.0000  72.0000 15.80155680    17
CTC2_L_00011007-02
1 43285U 22685BJ  26070.40841435  .00000000  00000+0  00000-0 0  9998
2 43285  60.0000  72.0000 0000000   0.0000 162.0000 15.80155680    18
CTC2_L_00011007-03
1 43286U 26726GF  26070.40841435  .00000000  00000+0  00000-0 0  9999
2 43286  60.0000  72.0000 0000000   0.0000 252.0000 15.80155680    19
CTC2_L_00011007-04
1 43287U 24214WR  26070.40841435  .00000000  00000+0  00000-0 0  9990
2 43287  60.0000  72.0000 0000000   0.0000 342.0000 15.80155680    10
CTC2_L_00011008-01
1 43288U 23868QQ  26070.40841435  .00000000  00000+0  00000-0 0  9995
2 43288  60.0000  84.0000 0000000   0.0000  84.0000 15.80155680    17
CTC2_L_00011008-02
1 43289U 22299IJ  26070.40841435  .00000000  00000+0  00000-0 0  9993
2 43289  60.0000  84.0000 0000000   0.0000 174.0000 15.80155680    18
CTC2_L_00011008-03
1 43290U 24148HT  26070.40841435  .00000000  00000+0  00000-0 0  9990
2 43290  60.0000  84.0000 0000000   0.0000 264.0000 15.80155680    10
CTC2_L_00011008-04
1 43291U 25675KN  26070.40841435  .00000000  00000+0  00000-0 0  9997
2 43291  60.0000  84.0000 0000000   0.0000 354.0000 15.80155680    11
CTC2_L_00011009-01
1 43292U 26723TK  26070.40841435  .00000000  00000+0  00000-0 0  9993
2 43292  60.0000  96.0000 0000000   0.0000  96.0000 15.80155680    18
CTC2_L_00011009-02
1 43293U 25040FF  26070.40841435  .00000000  00000+0  00000-0 0  9995
2 43293  60.0000  96.0000 0000000   0.0000 186.0000 15.80155680    19
CTC2_L_00011009-03
1 43294U 24899MJ  26070.40841435  .00000000  00000+0  00000-0 0  9997
2 43294  60.0000  96.0000 0000000   0.0000 276.0000 15.80155680    10
CTC2_L_00011009-04
1 43295U 23483LN  26070.40841435  .00000000  00000+0  00000-0 0  9996
2 43295  60.0000  96.0000 0000000   0.0000   6.0000 15.80155680    12
CTC2_L_00011010-01
1 43296U 23635TX  26070.40841435  .00000000  00000+0  00000-0 0  9996
2 43296  60.0000 108.0000 0000000   0.0000 108.0000 15.80155680    10
CTC2_L_00011010-02
1 43297U 23911R   26070.40841435  .00000000  00000+0  00000-0 0  9994
2 43297  60.0000 108.0000 0000000   0.0000 198.0000 15.80155680    10
CTC2_L_00011010-03
1 43298U 23132BS  26070.40841435  .00000000  00000+0  00000-0 0  9990
2 43298  60.0000 108.0000 0000000   0.0000 288.0000 15.80155680    11
CTC2_L_00011010-04
1 43299U 24513HP  26070.40841435  .00000000  00000+0  00000-0 0  9995
2 43299  60.0000 108.0000 0000000   0.0000  18.0000 15.80155680    13
CTC2_L_00011011-01
1 43300U 24314NI  26070.40841435  .00000000  00000+0  00000-0 0  9997
2 43300  60.0000 120.0000 0000000   0.0000 120.0000 15.80155680    14
CTC2_L_00011011-02
1 43301U 23905JO  26070.40841435  .00000000  00000+0  00000-0 0  9993
2 43301  60.0000 120.0000 0000000   0.0000 210.0000 15.80155680    15
CTC2_L_00011011-03
1 43302U 24728LM  26070.40841435  .00000000  00000+0  00000-0 0  9998
2 43302  60.0000 120.0000 0000000   0.0000 300.0000 15.80155680    16
CTC2_L_00011011-04
1 43303U 23117WT  26070.40841435  .00000000  00000+0  00000-0 0  9990
2 43303  60.0000 120.0000 0000000   0.0000  30.0000 15.80155680    17
CTC2_L_00011012-01
1 43304U 23893FE  26070.40841435  .00000000  00000+0  00000-0 0  9992
2 43304  60.0000 132.0000 0000000   0.0000 132.0000 15.80155680    14
CTC2_L_00011012-02
1 43305U 24154IM  26070.40841435  .00000000  00000+0  00000-0 0  9994
2 43305  60.0000 132.0000 0000000   0.0000 222.0000 15.80155680    15
CTC2_L_00011012-03
1 43306U 25152MH  26070.40841435  .00000000  00000+0  00000-0 0  9994
2 43306  60.0000 132.0000 0000000   0.0000 312.0000 15.80155680    16
CTC2_L_00011012-04
1 43307U 25180VA  26070.40841435  .00000000  00000+0  00000-0 0  9996
2 43307  60.0000 132.0000 0000000   0.0000  42.0000 15.80155680    17
CTC2_L_00011013-01
1 43308U 26231LI  26070.40841435  .00000000  00000+0  00000-0 0  9995
2 43308  60.0000 144.0000 0000000   0.0000 144.0000 15.80155680    14
CTC2_L_00011013-02
1 43309U 26859AN  26070.40841435  .00000000  00000+0  00000-0 0  9992
2 43309  60.0000 144.0000 0000000   0.0000 234.0000 15.80155680    15
CTC2_L_00011013-03
1 43310U 26630QA  26070.40841435  .00000000  00000+0  00000-0 0  9991
2 43310  60.0000 144.0000 0000000   0.0000 324.0000 15.80155680    17
CTC2_L_00011013-04
1 43311U 22791FM  26070.40841435  .00000000  00000+0  00000-0 0  9996
2 43311  60.0000 144.0000 0000000   0.0000  54.0000 15.80155680    18
CTC2_L_00011014-01
1 43312U 22996XY  26070.40841435  .00000000  00000+0  00000-0 0  9994
2 43312  60.0000 156.0000 0000000   0.0000 156.0000 15.80155680    15
CTC2_L_00011014-02
1 43313U 24928AG  26070.40841435  .00000000  00000+0  00000-0 0  9992
2 43313  60.0000 156.0000 0000000   0.0000 246.0000 15.80155680    16
CTC2_L_00011014-03
1 43314U 22357UY  26070.40841435  .00000000  00000+0  00000-0 0  9997
2 43314  60.0000 156.0000 0000000   0.0000 336.0000 15.80155680    17
CTC2_L_00011014-04
1 43315U 26009WM  26070.40841435  .00000000  00000+0  00000-0 0  9996
2 43315  60.0000 156.0000 0000000   0.0000  66.0000 15.80155680    18
CTC2_L_00011015-01
1 43316U 23165YA  26070.40841435  .00000000  00000+0  00000-0 0  9997
2 43316  60.0000 168.0000 0000000   0.0000 168.0000 15.80155680    15
CTC2_L_00011015-02
1 43317U 24121RY  26070.40841435  .00000000  00000+0  00000-0 0  9991
2 43317  60.0000 168.0000 0000000   0.0000 258.0000 15.80155680    16
CTC2_L_00011015-03
1 43318U 26332BH  26070.40841435  .00000000  00000+0  00000-0 0  9998
2 43318  60.0000 168.0000 0000000   0.0000 348.0000 15.80155680    17
CTC2_L_00011015-04
1 43319U 25822GA  26070.40841435  .00000000  00000+0  00000-0 0  9992
2 43319  60.0000 168.0000 0000000   0.0000  78.0000 15.80155680    18
CTC2_L_00011016-01
1 43320U 24750JF  26070.40841435  .00000000  00000+0  00000-0 0  9993
2 43320  60.0000 180.0000 0000000   0.0000 180.0000 15.80155680    18
CTC2_L_00011016-02
1 43321U 24826UQ  26070.40841435  .00000000  00000+0  00000-0 0  9998
2 43321  60.0000 180.0000 0000000   0.0000 270.0000 15.80155680    19
